STARLINK-31126          
1 58675U 23211J   26068.06041162  .00000160  00000+0  15355-4 0  9991
2 58675  43.0014  88.3695 0001584 283.5016  76.5659 15.27578005122370
STARLINK-36554          
1 67502U 26012K   26067.71268370  .00032833  00000+0  11969-2 0  9992
2 67502  42.9934 319.8184 0000695 339.2059  20.8765 15.27591469  7619
